[{"OBJECT_NAME":"STARLINK-30715","OBJECT_ID":"2023-148G","EPOCH":"2026-03-09T06:42:52.289568","MEAN_MOTION":15.3017713,"ECCENTRICITY":0.0001146,"INCLINATION":53.1626,"RA_OF_ASC_NODE":15.8909,"ARG_OF_PERICENTER":93.004,"MEAN_ANOMALY":267.1092,"EPHEMERIS_TYPE":0,"CLASSIFICATION_TYPE":"U","NORAD_CAT_ID":57941,"ELEMENT_SET_NO":999,"REV_AT_EPOCH":13850,"BSTAR":-9.6318201e-5,"MEAN_MOTION_DOT":-3.208e-5,"MEAN_MOTION_DDOT":0},{"OBJECT_NAME":"OBJECT A","OBJECT_ID":"2024-018A","EPOCH":"2026-03-09T23:31:34.722336","MEAN_MOTION":14.39019523,"ECCENTRICITY":0.04318583,"INCLINATION":58.6872,"RA_OF_ASC_NODE":217.3493,"ARG_OF_PERICENTER":349.6639,"MEAN_ANOMALY":9.5713,"EPHEMERIS_TYPE":0,"CLASSIFICATION_TYPE":"U","NORAD_CAT_ID":58849,"ELEMENT_SET_NO":999,"REV_AT_EPOCH":11089,"BSTAR":0.00018648837,"MEAN_MOTION_DOT":1.516e-5,"MEAN_MOTION_DDOT":0}]
